[{"OBJECT_NAME":"GEOEYE 1","OBJECT_ID":"2008-042A","EPOCH":"2026-03-09T21:23:49.829280","MEAN_MOTION":14.64767673,"ECCENTRICITY":0.00039854,"INCLINATION":98.1206,"RA_OF_ASC_NODE":144.0766,"ARG_OF_PERICENTER":27.9279,"MEAN_ANOMALY":332.2138,"EPHEMERIS_TYPE":0,"CLASSIFICATION_TYPE":"U","NORAD_CAT_ID":33331,"ELEMENT_SET_NO":999,"REV_AT_EPOCH":93561,"BSTAR":0.00013730387,"MEAN_MOTION_DOT":6.84e-6,"MEAN_MOTION_DDOT":0},{"OBJECT_NAME":"UNKNOWN","OBJECT_ID":"","EPOCH":"2026-03-08T22:04:04.381824","MEAN_MOTION":14.54769338,"ECCENTRICITY":0.0296144,"INCLINATION":65.656,"RA_OF_ASC_NODE":44.0504,"ARG_OF_PERICENTER":173.1079,"MEAN_ANOMALY":187.4242,"EPHEMERIS_TYPE":0,"CLASSIFICATION_TYPE":"U","NORAD_CAT_ID":82180,"ELEMENT_SET_NO":999,"REV_AT_EPOCH":61426,"BSTAR":0.0016597,"MEAN_MOTION_DOT":0.00012787,"MEAN_MOTION_DDOT":0}]
